{
  "norad_id": 48792,
  "name": "ONEWEB-0227",
  "history": [
    {
      "epoch": "2026-03-28T21:25:18.692544Z",
      "apogee_km": 1203.1143117208649,
      "perigee_km": 1200.4213231373287,
      "latitude_deg": 3.756181466398326e-05,
      "longitude_deg": 127.57751536158253,
      "height_km": 1204.7219520019844,
      "semi_major_axis_km": 7579.9048174290965,
      "eccentricity": 0.00017764,
      "inclination_deg": 87.8935,
      "raan_deg": 275.2119,
      "arg_perigee_deg": 92.6299,
      "mean_anomaly_deg": 267.5035,
      "mean_motion_rev_day": 13.15549318
    },
    {
      "epoch": "2026-03-28T23:14:50.080416Z",
      "apogee_km": 1203.1142521195898,
      "perigee_km": 1200.4249012661785,
      "latitude_deg": 6.6486940573998e-05,
      "longitude_deg": 100.10656767085564,
      "height_km": 1204.7255130859664,
      "semi_major_axis_km": 7579.906576692883,
      "eccentricity": 0.0001774,
      "inclination_deg": 87.8936,
      "raan_deg": 275.1967,
      "arg_perigee_deg": 92.7103,
      "mean_anomaly_deg": 267.4231,
      "mean_motion_rev_day": 13.1554886
    },
    {
      "epoch": "2026-03-30T00:48:08.966304Z",
      "apogee_km": 1203.113931167757,
      "perigee_km": 1200.4242772857333,
      "latitude_deg": -4.3810232847487564e-05,
      "longitude_deg": 75.5154563054543,
      "height_km": 1204.7131164562563,
      "semi_major_axis_km": 7579.906104226745,
      "eccentricity": 0.00017742,
      "inclination_deg": 87.8934,
      "raan_deg": 274.9838,
      "arg_perigee_deg": 92.201,
      "mean_anomaly_deg": 267.9323,
      "mean_motion_rev_day": 13.15548983
    },
    {
      "epoch": "2026-03-30T11:45:17.027424Z",
      "apogee_km": 1203.107766731996,
      "perigee_km": 1200.429028164539,
      "latitude_deg": 3.6142615403472526e-05,
      "longitude_deg": -89.3091207223248,
      "height_km": 1204.7066813694382,
      "semi_major_axis_km": 7579.905397448268,
      "eccentricity": 0.0001767,
      "inclination_deg": 87.8934,
      "raan_deg": 274.8926,
      "arg_perigee_deg": 91.9648,
      "mean_anomaly_deg": 268.1685,
      "mean_motion_rev_day": 13.15549167
    },
    {
      "epoch": "2026-03-30T22:42:25.066944Z",
      "apogee_km": 1203.1017089368324,
      "perigee_km": 1200.4320667875272,
      "latitude_deg": 1.8507164101537417e-06,
      "longitude_deg": 105.86618831523259,
      "height_km": 1204.6988725064707,
      "semi_major_axis_km": 7579.9038878621795,
      "eccentricity": 0.0001761,
      "inclination_deg": 87.8932,
      "raan_deg": 274.8012,
      "arg_perigee_deg": 91.7004,
      "mean_anomaly_deg": 268.4328,
      "mean_motion_rev_day": 13.1554956
    },
    {
      "epoch": "2026-03-31T18:47:09.865248Z",
      "apogee_km": 1203.1127138153006,
      "perigee_km": 1200.4203320839497,
      "latitude_deg": -7.053470738606117e-05,
      "longitude_deg": 163.68750745437393,
      "height_km": 1204.6983491334613,
      "semi_major_axis_km": 7579.903522949625,
      "eccentricity": 0.0001776,
      "inclination_deg": 87.893,
      "raan_deg": 274.6338,
      "arg_perigee_deg": 91.68,
      "mean_anomaly_deg": 268.4533,
      "mean_motion_rev_day": 13.15549655
    },
    {
      "epoch": "2026-04-01T18:30:57.415968Z",
      "apogee_km": 1203.119446639892,
      "perigee_km": 1200.4194839569527,
      "latitude_deg": -2.7082506097476816e-05,
      "longitude_deg": 166.5672309559334,
      "height_km": 1204.7024845536546,
      "semi_major_axis_km": 7579.906465298422,
      "eccentricity": 0.0001781,
      "inclination_deg": 87.8931,
      "raan_deg": 274.4362,
      "arg_perigee_deg": 91.7266,
      "mean_anomaly_deg": 268.4068,
      "mean_motion_rev_day": 13.15548889
    },
    {
      "epoch": "2026-04-02T18:14:44.839680Z",
      "apogee_km": 1203.137431672225,
      "perigee_km": 1200.3950226846327,
      "latitude_deg": -4.5034263161015334e-05,
      "longitude_deg": 169.44728241540625,
      "height_km": 1204.7061822656476,
      "semi_major_axis_km": 7579.903227178429,
      "eccentricity": 0.0001809,
      "inclination_deg": 87.8936,
      "raan_deg": 274.2384,
      "arg_perigee_deg": 91.9915,
      "mean_anomaly_deg": 268.1422,
      "mean_motion_rev_day": 13.15549732
    },
    {
      "epoch": "2026-04-02T21:53:47.592096Z",
      "apogee_km": 1203.1339405587787,
      "perigee_km": 1200.4012333570881,
      "latitude_deg": 3.172652218305051e-05,
      "longitude_deg": 114.50568535777167,
      "height_km": 1204.7130808266118,
      "semi_major_axis_km": 7579.904586957933,
      "eccentricity": 0.00018026,
      "inclination_deg": 87.8935,
      "raan_deg": 274.2082,
      "arg_perigee_deg": 92.231,
      "mean_anomaly_deg": 267.9027,
      "mean_motion_rev_day": 13.15549378
    },
    {
      "epoch": "2026-04-03T12:29:58.318368Z",
      "apogee_km": 1203.1300003540982,
      "perigee_km": 1200.4003259870979,
      "latitude_deg": 5.0980493338479636e-05,
      "longitude_deg": -105.2601297743016,
      "height_km": 1204.7035448429276,
      "semi_major_axis_km": 7579.902163170598,
      "eccentricity": 0.00018006,
      "inclination_deg": 87.8936,
      "raan_deg": 274.0868,
      "arg_perigee_deg": 91.9347,
      "mean_anomaly_deg": 268.199,
      "mean_motion_rev_day": 13.15550009
    },
    {
      "epoch": "2026-04-04T04:55:40.482624Z",
      "apogee_km": 1203.1358902509974,
      "perigee_km": 1200.3956038098913,
      "latitude_deg": -2.9086166568319924e-05,
      "longitude_deg": 7.502493114622409,
      "height_km": 1204.7053125311502,
      "semi_major_axis_km": 7579.9027470304445,
      "eccentricity": 0.00018076,
      "inclination_deg": 87.8934,
      "raan_deg": 273.9498,
      "arg_perigee_deg": 91.9768,
      "mean_anomaly_deg": 268.1569,
      "mean_motion_rev_day": 13.15549857
    },
    {
      "epoch": "2026-04-05T11:57:33.454368Z",
      "apogee_km": 1203.1242467942739,
      "perigee_km": 1200.4088221520842,
      "latitude_deg": 4.9663143377614396e-05,
      "longitude_deg": -99.5014347863158,
      "height_km": 1204.6780418459525,
      "semi_major_axis_km": 7579.903534473178,
      "eccentricity": 0.00017912,
      "inclination_deg": 87.8936,
      "raan_deg": 273.691,
      "arg_perigee_deg": 90.81,
      "mean_anomaly_deg": 269.3236,
      "mean_motion_rev_day": 13.15549652
    },
    {
      "epoch": "2026-04-05T22:54:41.570784Z",
      "apogee_km": 1203.1363864778486,
      "perigee_km": 1200.3973124228114,
      "latitude_deg": -2.7537001100523363e-05,
      "longitude_deg": 95.67375005923626,
      "height_km": 1204.6868087075684,
      "semi_major_axis_km": 7579.90384945033,
      "eccentricity": 0.00018068,
      "inclination_deg": 87.8937,
      "raan_deg": 273.5998,
      "arg_perigee_deg": 91.1572,
      "mean_anomaly_deg": 268.9765,
      "mean_motion_rev_day": 13.1554957
    },
    {
      "epoch": "2026-04-07T11:25:08.653440Z",
      "apogee_km": 1203.1492433560752,
      "perigee_km": 1200.389702605522,
      "latitude_deg": 2.6693352663738856e-05,
      "longitude_deg": -93.74220700624586,
      "height_km": 1204.711141098446,
      "semi_major_axis_km": 7579.906472980799,
      "eccentricity": 0.00018203,
      "inclination_deg": 87.8937,
      "raan_deg": 273.296,
      "arg_perigee_deg": 92.0516,
      "mean_anomaly_deg": 268.0823,
      "mean_motion_rev_day": 13.15548887
    },
    {
      "epoch": "2026-04-07T18:43:14.097792Z",
      "apogee_km": 1203.1473786011757,
      "perigee_km": 1200.3943560637608,
      "latitude_deg": -1.7566498527484974e-05,
      "longitude_deg": 156.37434322634087,
      "height_km": 1204.7239928317415,
      "semi_major_axis_km": 7579.907867332468,
      "eccentricity": 0.0001816,
      "inclination_deg": 87.8938,
      "raan_deg": 273.2351,
      "arg_perigee_deg": 92.533,
      "mean_anomaly_deg": 267.6008,
      "mean_motion_rev_day": 13.15548524
    },
    {
      "epoch": "2026-04-08T11:08:56.300928Z",
      "apogee_km": 1203.1492587363755,
      "perigee_km": 1200.3953260922553,
      "latitude_deg": -2.7310569155497703e-05,
      "longitude_deg": -90.8630956031525,
      "height_km": 1204.720832217902,
      "semi_major_axis_km": 7579.909292414315,
      "eccentricity": 0.00018166,
      "inclination_deg": 87.8936,
      "raan_deg": 273.0982,
      "arg_perigee_deg": 92.3413,
      "mean_anomaly_deg": 267.7925,
      "mean_motion_rev_day": 13.15548153
    },
    {
      "epoch": "2026-04-09T12:42:15.185952Z",
      "apogee_km": 1203.155186746345,
      "perigee_km": 1200.3900357201674,
      "latitude_deg": -1.4116142358067417e-05,
      "longitude_deg": -115.45430256714812,
      "height_km": 1204.7176546553492,
      "semi_major_axis_km": 7579.909611233256,
      "eccentricity": 0.0001824,
      "inclination_deg": 87.8938,
      "raan_deg": 272.8852,
      "arg_perigee_deg": 92.1874,
      "mean_anomaly_deg": 267.9465,
      "mean_motion_rev_day": 13.1554807
    }
  ]
}